[Satellite]
VERSION=1.1
NAME=ORSTED
NICKNAME=ORSTED
TLE1=1 25635U 99008B   15054.88429078  .00000490  00000-0  12502-3 0  9994
TLE2=2 25635  96.4791 147.1263 0140940  60.2406   5.1874 14.47568446844076
